{
    "links": {
        "self": "http://www.neowsapp.com/rest/v1/neo/3799654?api_key=iIulBulltgU6a56xZRHN4H3l9WmuAYTsLGpBGhQ2"
    },
    "id": "3799654",
    "neo_reference_id": "3799654",
    "name": "(2018 BE11)",
    "designation": "2018 BE11",
    "nasa_jpl_url": "http://ssd.jpl.nasa.gov/sbdb.cgi?sstr=3799654",
    "absolute_magnitude_h": 25.549,
    "estimated_diameter": {
        "kilometers": {
            "estimated_diameter_min": 0.0206421522,
            "estimated_diameter_max": 0.0461572556
        },
        "meters": {
            "estimated_diameter_min": 20.6421522339,
            "estimated_diameter_max": 46.1572555969
        },
        "miles": {
            "estimated_diameter_min": 0.0128264348,
            "estimated_diameter_max": 0.0286807801
        },
        "feet": {
            "estimated_diameter_min": 67.723598735,
            "estimated_diameter_max": 151.4345704524
        }
    },
    "is_potentially_hazardous_asteroid": false,
    "close_approach_data": [
        {
            "close_approach_date": "2017-12-27",
            "close_approach_date_full": "2017-Dec-27 11:04",
            "epoch_date_close_approach": 1514372640000,
            "relative_velocity": {
                "kilometers_per_second": "4.1185241719",
                "kilometers_per_hour": "14826.6870186781",
                "miles_per_hour": "9212.7267200225"
            },
            "miss_distance": {
                "astronomical": "0.0779245573",
                "lunar": "30.3126527897",
                "kilometers": "11657347.792772951",
                "miles": "7243540.0310146838"
            },
            "orbiting_body": "Earth"
        }
    ],
    "orbital_data": {
        "orbit_id": "1",
        "orbit_determination_date": "2018-02-17 06:20:15",
        "first_observation_date": "2018-01-16",
        "last_observation_date": "2018-01-17",
        "data_arc_in_days": 1,
        "observations_used": 9,
        "orbit_uncertainty": "9",
        "minimum_orbit_intersection": ".066613",
        "jupiter_tisserand_invariant": "4.469",
        "epoch_osculation": "2458135.5",
        "eccentricity": ".3063482677858415",
        "semi_major_axis": "1.510284284987833",
        "inclination": "3.704779902094441",
        "ascending_node_longitude": "87.25817547045017",
        "orbital_period": "677.9325430786976",
        "perihelion_distance": "1.047611310417632",
        "perihelion_argument": "17.48224102251217",
        "aphelion_distance": "1.972957259558033",
        "perihelion_time": "2458121.473987701107",
        "mean_anomaly": "7.448181207927832",
        "mean_motion": ".5310262852482796",
        "equinox": "J2000",
        "orbit_class": {
            "orbit_class_type": "AMO",
            "orbit_class_description": "Near-Earth asteroid orbits similar to that of 1221 Amor",
            "orbit_class_range": "1.017 AU < q (perihelion) < 1.3 AU"
        }
    },
    "is_sentry_object": false
}